STARLINK-1559           
1 46077U 20055BC  26068.23360559  .00042685  00000+0  14779-2 0  9995
2 46077  53.0254  76.0659 0004229  33.9710 326.1559 15.29461733309518
STARLINK-32750          
1 62572U 25006U   26068.01279713  .00027621  00000+0  10087-2 0  9992
2 62572  43.0026 296.0022 0001204 282.8978  77.1739 15.27606075 64767
